latitude,longitude,altitude,geometry,coordinates,@id,addr:city,addr:housenumber,addr:postcode,air_conditioning,building,name,network,operator,phone,public_transport,railway,station,subway,website,wheelchair,wikidata,wikipedia,name:kn,elevation,layer,level,name:ar,building:levels,addr:street,internet_access:fee,internet_access,name:ur,payment:cards,payment:cash,payment:coins,payment:contactless,payment:electronic_purses,ref,alt_name,construction,disused,public_transport:version,train,colour,toilets:wheelchair,departures_board,shelter,type,short_name,name:fa,comment,old_name,line
28.6675628,77.2272886,,Polygon,"77.2272886,28.6675628,77.2272756,28.667279,77.2274309,28.6672759,77.2282935,28.6672629,77.2285432,28.6672726,77.2289205,28.6672874,77.2291742,28.6673331,77.2293266,28.6673518,77.2294093,28.667367,77.229463,28.667376,77.2295573,28.6673833,77.2295241,28.6675973,77.2295771,28.6676261,77.2297437,28.6676647,77.2296933,28.6677731,77.2296436,28.6677605,77.2295388,28.6677374,77.2294892,28.6676608,77.229352,28.6676374,77.2292622,28.6676247,77.22916,28.6676159,77.2290148,28.667592,77.2288725,28.6675789,77.2288405,28.6676737,77.2286641,28.6679275,77.2285629,28.6678613,77.2286805,28.6676795,77.2284814,28.6676866,77.2284763,28.6675471,77.2283935,28.6676648,77.2283283,28.6677873,77.228255,28.6677922,77.2281279,28.6679876,77.2278829,28.6678773,77.2277832,28.6677371,77.2278974,28.6676538,77.2277366,28.6676491,77.2277419,28.6675426,77.2273688,28.6675592,77.2272886,28.6675628",way/80431079,"Inter State Bus Terminal, Kashmere Gate, Old Delhi, Delhi",Kashmere Gate Metro Station,110006,yes,yes,Kashmere Gate,Delhi Metro,DMRC,088007 93129,station,station,subway,yes,www.delhimetrorail.com,yes,Q4207344,en:Kashmere Gate metro station,,,,,,,,,,,,,,,,,,,,,,,,,,,,,,,
28.6234613,77.2688238,,Polygon,"77.2688238,28.6234613,77.2688172,28.623476,77.2687973,28.6235202,77.268792,28.6235319,77.2687866,28.6235441,77.2687684,28.6235846,77.2687631,28.6235963,77.2687564,28.6236113,77.2687297,28.6236705,77.2687236,28.6236841,77.2670243,28.6230955,77.2670303,28.6230822,77.2670571,28.6230227,77.2670638,28.6230077,77.2670684,28.6229974,77.2670882,28.6229534,77.2670934,28.6229419,77.2670987,28.6229302,77.2671185,28.622886,77.2671245,28.6228727,77.2676687,28.6230612,77.2688238,28.6234613",way/139071689,,,,,train_station,Yamuna Bank (Blue Line),DMRC,Delhi Metro Rail Corporation,,station,station,subway,yes,,,Q12525001,en:Yamuna Bank metro station,ಯಮುನಾ ಬ್ಯಾಂಕ್,,,,,,,,,,,,,,,,,,,,,,,,,,,,,,
28.5707921,77.2367732,,Polygon,"77.2367732,28.5707921,77.2367123,28.5708193,77.236871,28.5710937,77.2367077,28.5711665,77.236546,28.570887,77.2365197,28.5708987,77.2362895,28.5705159,77.236187,28.5703238,77.2362577,28.5702922,77.2360974,28.5700152,77.2362579,28.5699435,77.2364174,28.5702191,77.2364549,28.5702023,77.2365027,28.570285,77.23677,28.5701657,77.2368046,28.5702255,77.2365636,28.5703331,77.2366367,28.5704596,77.2367691,28.5706884,77.2367247,28.5707082,77.2367732,28.5707921",way/169413730,,Lajpat Nagar Metro Station,,yes,yes,Lajpat Nagar Metro Station,Delhi Metro,DMRC,,station,station,subway,yes,,,Q6474492,en:Lajpat Nagar metro station,,1,1,1,محطة مترو لاجبت نغر,,,,,,,,,,,,,,,,,,,,,,,,,,
28.6237295,77.242465,,Polygon,"77.242465,28.6237295,77.2424066,28.6236804,77.2420081,28.6240456,77.2418861,28.623943,77.2419492,28.6238852,77.2422866,28.623576,77.2422196,28.6235196,77.2427643,28.6230204,77.2428103,28.6230591,77.2431551,28.622743,77.2432709,28.6228404,77.2429237,28.6231586,77.2429458,28.6231772,77.2430094,28.6232307,77.242465,28.6237295",way/351561046,,Pragati Maidan Metro Station,,,yes,Pragati Maidan Metro Station,Delhi Metro,DMRC,,station,station,subway,yes,,,Q7237614,en:Pragati Maidan metro station,,,,,,,,,,,,,,,,,,,,,,,,,,,,,,,
28.667296,77.2163638,,Polygon,"77.2163638,28.667296,77.216356,28.6672529,77.2163504,28.6672536,77.2156503,28.6673737,77.2156401,28.6673259,77.2156319,28.6672869,77.2156128,28.6671972,77.2163216,28.6670637,77.2163155,28.6670301,77.21662,28.6669701,77.216919,28.6669383,77.2169233,28.6669723,77.2176244,28.6669006,77.2176486,28.6670913,77.2169485,28.6671733,77.2169539,28.667216,77.2168198,28.6672372,77.2167876,28.6672489,77.2167286,28.6672866,77.2166454,28.6673007,77.2165811,28.667296,77.2165006,28.6672748,77.2163638,28.667296",way/464265890,,Tis Hazari Metro Station,,yes,yes,Tis Hazari Metro Station,Delhi Metro,DMRC,,station,station,subway,yes,www.delhimetrorail.com,yes,Q3632416,en:Tis Hazari metro station,,,,,,,,,,,,,,,,,,,,,,,,,,,,,,,
28.6186755,77.2789897,,Polygon,"77.2789897,28.6186755,77.2788365,28.6185886,77.2790698,28.6182719,77.2790078,28.6182367,77.2795182,28.6175437,77.2795727,28.6175746,77.2798556,28.6171905,77.2800115,28.6172789,77.2798652,28.6174776,77.2797368,28.6176519,77.2797939,28.6176843,77.2795616,28.6179996,77.2794723,28.6181209,77.2792747,28.6183892,77.2792224,28.6183595,77.2791867,28.618408,77.2789897,28.6186755",way/504034446,,,,,yes,Akshardham Metro Station,Delhi Metro,Delhi Metro Rail Corporation,,,station,subway,yes,,,Q4701799,,ಅಕ್ಷರದಾಮ್,,,,,3,,,,,,,,,,,,,,,,,,,,,,,,,
28.4938923,77.3029596,,Polygon,"77.3029596,28.4938923,77.3027967,28.4938601,77.3028573,28.4936231,77.3027811,28.4936081,77.3029765,28.4928436,77.3030377,28.4928557,77.3030971,28.4926235,77.3032773,28.492659,77.3032142,28.4929057,77.3032794,28.4929185,77.3030866,28.493673,77.3030191,28.4936597,77.3029596,28.4938923",way/581226084,"Badarpur, New Delhi, Delhi",Badarpur Metro Station,110044,yes,train_station,Badarpur Metro Station,Delhi Metro,DMRC,,station,station,subway,yes,,,Q4840629,en:Badarpur Border metro station,,2,2,,,,Mathura Road,,,,,,,,,,,,,,,,,,,,,,,,
28.6959708,77.1521516,,Polygon,"77.1521516,28.6959708,77.1521899,28.695897,77.1517803,28.695691,77.1518839,28.6955361,77.152284,28.6957642,77.1523147,28.6957163,77.1531327,28.6961327,77.1530892,28.696178,77.1535289,28.6963916,77.1534183,28.696524,77.1530164,28.6963181,77.1529691,28.6963962,77.1521516,28.6959708",way/637896290,,,,yes,yes,Netaji Subhash Place (Red Line),Delhi Metro,DMRC,,station,station,subway,yes,,yes,Q6998648,en:Netaji Subhash Place metro station,,,,,,,,,,,,,,,,,,,,,,,,,,,,,,,
28.6818908,77.1648176,,Polygon,"77.1648176,28.6818908,77.1648758,28.6819119,77.1648898,28.681917,77.1650642,28.6815479,77.1652135,28.6816037,77.1652396,28.6816134,77.1650709,28.6819632,77.16511,28.6819967,77.1647033,28.6828635,77.1646454,28.6828417,77.1644796,28.6832014,77.1644366,28.6831857,77.1643013,28.6831364,77.1644854,28.6827839,77.1644636,28.6827739,77.1644274,28.6827572,77.1648176,28.6818908",way/637896293,,Kanhiya Nagar Metro Station,,yes,yes,Kanhiya Nagar Metro Station,Delhi Metro,DMRC,,station,station,subway,yes,,yes,,,,,,,,,,,,,,,,,,,,,,,,,,,,,,,,,
28.6701579,77.1815046,,Polygon,"77.1815046,28.6701579,77.1815026,28.6701264,77.1809628,28.6701964,77.1809456,28.6700954,77.1809305,28.6700071,77.181475,28.6699426,77.1814689,28.6699021,77.1822305,28.6698173,77.1822352,28.6698703,77.1826169,28.6698517,77.1827053,28.6698474,77.1827831,28.6698437,77.1827909,28.6699181,77.1828022,28.6700268,77.182256,28.6700517,77.1822555,28.6700966,77.1815046,28.6701579",way/637896298,,,,yes,yes,Shastri Nagar Metro Station,Delhi Metro,DMRC,,station,station,subway,yes,www.delhimetrorail.com,yes,Q11307659,en:Shastri Nagar metro station,,,,,,,,,,,,,,,,,,,,,,,,,,,,,,,
28.6668056,77.1987457,,Polygon,"77.1987457,28.6668056,77.1987336,28.6667697,77.1981731,28.6668861,77.1981219,28.6667293,77.1986719,28.6665878,77.1986623,28.6665593,77.1993906,28.6663613,77.1994037,28.6664001,77.1999607,28.6662295,77.2000135,28.6664211,77.1994712,28.666566,77.1994721,28.6666026,77.1987457,28.6668056",way/637896301,,Pratap Nagar Metro Station,,yes,yes,Pratap Nagar Metro Station,Delhi Metro,DMRC,,station,station,subway,yes,www.delhimetrorail.com,yes,Q7238590,en:Pratap Nagar metro station,,,,,,,,,,,,,,,,,,,,,,,,,,,,,,,
28.5541307,77.264602,,Polygon,"77.264602,28.5541307,77.2646637,28.5541637,77.2646986,28.554133,77.264716,28.5541519,77.2647787,28.5541637,77.2648783,28.5541825,77.2650151,28.5542402,77.2650956,28.5543675,77.2652484,28.5546195,77.2652404,28.5546973,77.265453,28.5548822,77.2653829,28.5549465,77.265337,28.5549882,77.2651385,28.5548251,77.2651076,28.5548363,77.2650352,28.5547939,77.2650138,28.5548021,77.2647938,28.5546078,77.2646047,28.5544169,77.2646087,28.5543781,77.2644612,28.5542379,77.2643016,28.5541001,77.2644156,28.5539952,77.264602,28.5541307",way/659283553,,,,,yes,Okhla NSIC,Delhi Metro,DMRC,,station,station,subway,yes,,,,,,,1,1,,,,,,,,,,,,,,,,,,,,,,,,,,,
28.5021088,77.2993773,,Polygon,"77.2993773,28.5021088,77.2994935,28.5024012,77.2996196,28.5026851,77.2995443,28.5027162,77.2996589,28.5030107,77.2995706,28.5030384,77.299493,28.5030646,77.2994065,28.5028774,77.2992273,28.5028657,77.2992012,28.5028018,77.2992706,28.5027071,77.2991364,28.5023526,77.2989846,28.5022978,77.2989511,28.5021845,77.2990544,28.5021522,77.2990237,28.5018731,77.2991744,28.5018236,77.2993002,28.5021232,77.2993773,28.5021088",way/662332955,,,,yes,yes,Tughlakabad Metro Station,Delhi Metro,DMRC,,station,station,subway,yes,,yes,Q7851651,en:Tughlakabad Station metro station,,,,,,,,,,,,,,,,,,,,,,,,,,,,,,,
28.589717,77.1694038,,Polygon,"77.1694038,28.589717,77.1692661,28.5899045,77.1692093,28.5899772,77.1690248,28.5898801,77.1690702,28.5898065,77.1691905,28.5896061,77.1689671,28.5894798,77.1687905,28.5897389,77.1687277,28.5897066,77.1689403,28.5893872,77.1691415,28.5894945,77.1695352,28.5889519,77.1695959,28.5889842,77.169739,28.5887706,77.1699086,28.5888582,77.1697642,28.5890737,77.169827,28.5891071,77.1697497,28.5892191,77.1698117,28.5892521,77.1697882,28.5892923,77.1698241,28.589309,77.1699554,28.5891058,77.1700187,28.5891383,77.1698292,28.5894217,77.1697718,28.5893936,77.1697815,28.5893747,77.1697506,28.5893616,77.1694769,28.58976,77.1694038,28.589717",way/662484598,,,,,train_station,Durgabai Deshmukh South Campus,Delhi Metro Rail Corporation,,,,station,subway,yes,,,,,,,,1,,,,,,,,,,,,,,,,,,,,,,,,,,,
28.6735693,77.2887133,,Polygon,"77.2887133,28.6735693,77.2887232,28.6735042,77.2887532,28.6733074,77.2887786,28.6731453,77.2889219,28.6731584,77.2890642,28.6731751,77.290747,28.6733724,77.2907374,28.673435,77.2907309,28.6734779,77.2907104,28.6736123,77.2892768,28.6734443,77.2892746,28.6734589,77.2892486,28.6736299,77.2891337,28.6736165,77.2891032,28.6736129,77.2890918,28.6736879,77.2888241,28.6736565,77.2888352,28.6735836,77.2887133,28.6735693",way/687046458,Mumabi,,,yes,yes,Shahdara Metro Station,Delhi Metro,DMRC,,station,station,subway,yes,http//www.delhimetrorail.com,yes,Q11307902,en:Shahdara metro station,,,,,,,,,,,,,,,,,,,,,,,,,,,,,,,
28.593399,77.2950317,,Polygon,"77.2950317,28.593399,77.2942351,28.5949522,77.294147,28.5949173,77.2949436,28.5933641,77.2950317,28.593399",way/696181173,,,,,roof,Mayur Vihar Extension,Delhi Metro,Delhi Metro Rail Corporation,,,station,subway,yes,,yes,Q6798108,,,,,,,,,,,,,,,,,,,,,,,,,,,,,,,,
28.6681855,77.2504978,,Polygon,"77.2504978,28.6681855,77.2505995,28.6681519,77.2506068,28.6681689,77.2507832,28.6681105,77.2507913,28.6681293,77.2508056,28.6681828,77.250832,28.6682239,77.2507536,28.6682428,77.2499792,28.6685062,77.24994,28.668415,77.2500156,28.66839,77.2499987,28.6683507,77.2501515,28.6683002,77.2501409,28.668255,77.2501429,28.6682216,77.2501527,28.6681892,77.2501698,28.6681592,77.2501934,28.6681329,77.2502228,28.6681115,77.2502585,28.668095,77.2502974,28.6680857,77.2503377,28.6680839,77.2503775,28.6680898,77.2504148,28.6681032,77.2504481,28.6681232,77.2504805,28.6681552,77.2504978,28.6681855",way/696412829,,Shastri Park Metro Station,,,yes,Shastri Park Metro Station,Delhi Metro,DMRC,,station,station,subway,yes,,yes,Q11307901,en:Shastri Park metro station,,,,,,,,,,,,,,,,,,,,,,,,,,,,,,,
28.6752586,77.3001959,,Polygon,"77.3001959,28.6752586,77.3005822,28.6752562,77.3005714,28.6751927,77.3013466,28.6752044,77.3013439,28.6752609,77.302052,28.6752703,77.3020762,28.6752868,77.3020735,28.6754021,77.3013466,28.6753974,77.3013466,28.6754492,77.3005795,28.6754656,77.3005795,28.675395,77.3001879,28.6753974,77.3001959,28.6752586",way/697071463,"Shahdara, Delhi",Mansrovar Park Metro Station,,,yes,Mansarovar Park,Delhi Metro,DMRC,,station,station,subway,yes,,yes,Q6751563,en:Mansarovar Park metro station,,,,,,,G.T Road,,,,,,,,,,,,,,,,,,,,,,,,
28.6755927,77.3115765,,Polygon,"77.3115765,28.6755927,77.3117643,28.6755974,77.312113,28.6756092,77.312121,28.6755551,77.3128828,28.6755668,77.3128935,28.6756257,77.3134192,28.6756468,77.313446,28.6756939,77.313438,28.6757692,77.3128828,28.675741,77.3128774,28.6758351,77.312113,28.6758092,77.3121076,28.6757221,77.3115631,28.6757127,77.3115765,28.6755927",way/697071464,,,,,yes,Jhilmil Metro Station,,DMRC,,station,station,subway,yes,,,Q6191072,en:Jhilmil metro station,,,,,,,,,,,,,,,,,,,,,,,,,,,,,,,
28.5291181,77.2879262,,Polygon,"77.2879262,28.5291181,77.2881086,28.5288494,77.2880657,28.5288258,77.2884573,28.5282862,77.2885029,28.5283051,77.2886906,28.5280482,77.2889267,28.5281707,77.2887228,28.5284252,77.2887738,28.5284488,77.2887228,28.5284936,77.2884433,28.528894,77.2883741,28.5289932,77.2883258,28.5289672,77.2881649,28.5292406,77.2879262,28.5291181",way/698298769,,,,yes,yes,Sarita Vihar Metro Station,Delhi Metro,DMRC,,station,station,subway,yes,,,Q7424130,en:Sarita Vihar metro station,,1,1,1,,,,,,,,,,,,,,,,,,,,,,,,,,,
28.520148,77.2942357,,Polygon,"77.2942357,28.520148,77.2943993,28.5198511,77.2943644,28.5198393,77.2944046,28.5197545,77.2943349,28.5197309,77.2945566,28.5192424,77.2945897,28.5192336,77.2946729,28.5192572,77.2948123,28.5189649,77.2949312,28.5190138,77.2949786,28.5190333,77.2948445,28.5193255,77.2948874,28.5193467,77.2948338,28.5194481,77.2946138,28.5199359,77.2945602,28.5199171,77.2944207,28.5202093,77.294374,28.5201938,77.2942357,28.520148",way/698455465,,,,yes,yes,Mohan Estate Metro Station,Delhi Metro,DMRC,,station,station,subway,yes,,yes,Q6893528,en:Mohan Estate metro station,,,,,,,,,,,,,,,,,,,,,,,,,,,,,,,
28.6914926,77.2791207,,Polygon,"77.2791207,28.6914926,77.2791609,28.6914714,77.2794358,28.6913514,77.2795552,28.6913055,77.2796035,28.6913961,77.2798086,28.6917902,77.2798529,28.6918796,77.2798904,28.692022,77.279936,28.6921161,77.28005,28.6923467,77.2801479,28.6925467,77.28005,28.6925866,77.2797577,28.6926902,77.2797711,28.6927113,77.2797456,28.6927102,77.2795726,28.6923314,77.2794787,28.6921643,77.2793433,28.6919349,77.2792011,28.6916584,77.2791207,28.6914926",way/699175184,,,,,yes,Maujpur - Babarpur Metro Station,Delhi Metro,DMRC,,station,station,subway,yes,,,,,,2,,2,,,,,,,,,,,,,,,,,,,,,,,,,,,
28.6714763,77.276784,,Polygon,"77.276784,28.6714763,77.2773231,28.6715704,77.2780929,28.6717187,77.2787661,28.6718293,77.2787583,28.6718714,77.2787466,28.6719339,77.278742,28.6719587,77.2784255,28.671914,77.2784014,28.6720623,77.2783182,28.672067,77.2781519,28.672107,77.2779507,28.671994,77.2778722,28.6719653,77.2778542,28.6719587,77.2776611,28.6719117,77.2774331,28.6719093,77.27724,28.6719423,77.2770254,28.671834,77.2770495,28.6716787,77.2767679,28.6716269,77.2767716,28.6715923,77.2767778,28.671534,77.276784,28.6714763",way/699660181,"Welcome near Shyam Lal College, Shahdara",Welcome Metro Station,,,yes,Welcome Metro Station (Red Line),Delhi Metro,DMRC,,station,station,subway,yes,,yes,Q11288582,en:Welcome metro station,,,,,,,GT Road,,,,,,,,,,,,,,,,,,,,,,,,
28.6721088,77.2761887,,Polygon,"77.2761887,28.6721088,77.2764958,28.6721383,77.2764985,28.6721147,77.2767788,28.6721559,77.2770148,28.6722053,77.2771508,28.6722351,77.2776062,28.6723348,77.2776076,28.6723771,77.2776009,28.6724136,77.2775834,28.6724524,77.2775566,28.6724913,77.2774279,28.6724665,77.2767265,28.6723395,77.2761619,28.6722489,77.2761753,28.6721783,77.2761887,28.6721088",way/699660184,,Welckme Metro Station,,,yes,Welcome Metro Station (Pink Line),Delhi Metro,DMRC,,station,station,subway,yes,,yes,Q11288582,en:Welcome metro station,,,,,,,GT Road,,,,,,,,,,,,,,,,,,,,,,,,
28.6408679,77.2947298,,Polygon,"77.2947298,28.6408679,77.2951402,28.641228,77.2951992,28.6411904,77.295741,28.6416188,77.2957034,28.6416612,77.296154,28.6420119,77.2960226,28.6421131,77.2955801,28.6417812,77.2955506,28.6418024,77.2950087,28.6413716,77.2950409,28.6413245,77.294601,28.6409926,77.2946574,28.6409196,77.2947298,28.6408679",way/700070815,,Preet Vihar Metro Station,,yes,yes,Preet Vihar Metro Station,Delhi Metro,DMRC,,station,station,subway,yes,,limited,Q7239761,en:Preet Vihar metro station,,1,1,,,,Vikas Marg,,,,,,,,,,,,,,,,,,,,,,,,
28.6364485,77.2864416,,Polygon,"77.2864416,28.6364485,77.2864611,28.6364106,77.2862773,28.6363106,77.285985,28.6361564,77.285993,28.6361046,77.2860252,28.6360551,77.2860467,28.6360316,77.2860668,28.6360139,77.2861634,28.6360657,77.2865778,28.6362729,77.2865965,28.6362305,77.2868071,28.6363388,77.2872268,28.6365636,77.2872041,28.6366107,77.2877083,28.6368767,77.2876835,28.6369358,77.2876539,28.6369711,77.2876057,28.6370041,77.2871041,28.6367475,77.2870826,28.6367875,77.2864416,28.6364485",way/700096132,,Nirman Vihar Metro Station,,yes,yes,Nirman Vihar Metro Station,Delhi Metro,DMRC,,station,station,subway,yes,,,Q7040065,en:Nirman Vihar metro station,,1,1,,,,Vikas Marg,,,,,,,,,,,,,,,,,,,,,,,,
28.6299931,77.2769111,,Polygon,"77.2769111,28.6299931,77.2773466,28.6302539,77.2773788,28.630221,77.2777194,28.6304423,77.2780034,28.6306523,77.2779705,28.6306899,77.2784399,28.6309983,77.2784399,28.6310136,77.2784171,28.631049,77.2783997,28.6310725,77.2783648,28.6311008,77.2783326,28.6311278,77.2778259,28.6307892,77.2777951,28.6308233,77.2777157,28.63077,77.277249,28.630458,77.2772812,28.6304121,77.2768293,28.6301214,77.2768373,28.630099,77.2768588,28.6300472,77.2768829,28.6300131,77.2769111,28.6299931",way/700096133,,Laxmi Nagar Metro Station,,yes,yes,Laxmi Nagar Metro Station,Delhi Metro,DMRC,,station,station,subway,yes,,,Q6505213,en:Laxmi Nagar metro station,,1,1,,,,Vikas Marg,,,,,,,,,,,,,,,,,,,,,,,,
28.6759426,77.3205054,,Polygon,"77.3205054,28.6759426,77.3204893,28.6759144,77.3204946,28.6758579,77.3205268,28.6758014,77.3210525,28.6758001,77.3210579,28.6757238,77.3218357,28.6757308,77.3218357,28.6757732,77.3223936,28.6758061,77.3223829,28.6759591,77.3218384,28.6759497,77.3218331,28.6760061,77.3210606,28.6760038,77.3210579,28.6759379,77.3205054,28.6759426",way/701576004,,,,,yes,Dilshad Garden Metro Station,Delhi Metro,DMRC,,station,station,subway,yes,,,,,,,,,,,,,,,,,,,,,,,,,,,,,,,,,,,
28.6697167,77.2658254,,Polygon,"77.2658254,28.6697167,77.2658472,28.6696659,77.2658563,28.6696447,77.265859,28.6696115,77.2658617,28.6695788,77.2658563,28.6695552,77.2668782,28.6697388,77.2678304,28.6699082,77.2678331,28.6699412,77.2678236,28.6699717,77.267817,28.6699929,77.2678038,28.6700161,77.2677848,28.6700494,77.2674817,28.67,77.2674495,28.6701412,77.2673888,28.6701564,77.2671952,28.6701798,77.2671147,28.6701161,77.2669609,28.6700553,77.2667875,28.6700036,77.2665622,28.6699847,77.2664385,28.6699912,77.2663177,28.6700235,77.2661046,28.6698955,77.2661276,28.6697649,77.2658254,28.6697167",way/702114794,,,,yes,yes,Seelampur Metro Station,Delhi Metro,DMRC,,station,station,subway,yes,,yes,Q7445815,en:Seelampur metro station,,,,,,,,,,,,,,,,,,,,,,,,,,,,,,,
28.6482066,77.3046636,,Polygon,"77.3046636,28.6482066,77.3046878,28.6481312,77.3047307,28.6480724,77.305294,28.6482113,77.3053101,28.6481665,77.3060128,28.6483054,77.3059994,28.6483713,77.30656,28.6484184,77.306568,28.6484772,77.3065685,28.6485032,77.3065753,28.6485666,77.3065048,28.648607,77.3061415,28.6485596,77.3059672,28.6485173,77.3059538,28.648569,77.3053712,28.6484528,77.3052457,28.6484278,77.3052457,28.6483807,77.3047922,28.6482621,77.304661,28.6482277,77.3046636,28.6482066",way/705238564,"Karkarduma, Delhi",Karkarduma Metro Station (Blue Line),110092,yes,yes,Karkarduma Metro Station (Blue Line),Delhi Metro,DMRC,,station,station,subway,yes,,,Q6371278,en:Karkarduma metro station,,,,,,,Bhartendu Harish Chandra Marg,,,,,,,,,,,,,,,,,,,,,,,,
28.6497342,77.3057339,,Polygon,"77.3057339,28.6497342,77.3058706,28.649447,77.3059967,28.6492399,77.3061174,28.6490845,77.3062971,28.6488515,77.3065045,28.6486472,77.3065714,28.6486679,77.3066199,28.6487029,77.30661,28.6487439,77.3065144,28.6489339,77.3062327,28.6493482,77.3062703,28.6493999,77.3062703,28.6494282,77.3061442,28.6496165,77.3060262,28.6497271,77.3059082,28.6498213,77.3058215,28.6497657,77.3057597,28.6497374,77.3057339,28.6497342",way/705238565,"Karkarduma, Delhi",Karkarduma Metro Station (Pink Line),,yes,yes,Karkarduma Metro Station (Pink Line),Delhi Metro,DMRC,,station,station,subway,yes,,,Q6371278,en:Karkarduma metro station,,,,,,,Bhartendu Harish Chandra Marg,,,,,,,,,,,,,,,,,,,,,,,,
28.6535381,77.2950985,,Polygon,"77.2950985,28.6535381,77.2951093,28.653491,77.2951229,28.6534341,77.2951307,28.6534015,77.2953721,28.6534274,77.2953855,28.6533719,77.2957905,28.6534227,77.2961982,28.6535098,77.2963693,28.6535618,77.2965523,28.6536581,77.2965523,28.6536934,77.2965468,28.6537107,77.2965335,28.6537523,77.296496,28.653804,77.2962331,28.6537523,77.296224,28.6537949,77.296217,28.6538276,77.2959837,28.653804,77.2958683,28.6537876,77.2956967,28.6537475,77.2954177,28.6536864,77.2954353,28.6536451,77.2954499,28.653611,77.2950985,28.6535381",way/706122276,"Karkardooma, New Delhi, Delhi",Karkardooma Court Metro Station,,yes,yes,Karkardooma Court Metro Station,Delhi Metro,DMRC,,station,station,subway,yes,,,Q28172856,en:Karkarduma Court metro station,,,,,,,Maharaj Surajmal Marg,,,,,,,,,,,,,,,,,,,,,,,,
28.6661468,77.2064993,,Polygon,"77.2064993,28.6661468,77.2067085,28.666168,77.2068614,28.6661704,77.2068694,28.6661398,77.2077706,28.6662574,77.2077706,28.6662833,77.2083849,28.6664104,77.20835,28.6664716,77.2082964,28.6665751,77.2077465,28.6664669,77.207725,28.6665187,77.207453,28.6664743,77.2072637,28.6664434,77.2068399,28.6664057,77.206848,28.6663445,77.2064805,28.6663069,77.2064993,28.6662363,77.2064993,28.6661468",way/707631331,Mumabi,Pul Bangash,,yes,yes,Pul Bangash Metro Station,Delhi Metro,DMRC,,station,station,subway,yes,www.delhimetrorail.com,yes,Q7259157,en:Pul Bangash metro station,,,,,,,,,,,,,,,,,,,,,,,,,,,,,,,
28.673674,77.1698665,,Polygon,"77.1698665,28.673674,77.1700822,28.6735127,77.1702417,28.6733935,77.1705528,28.6731582,77.1707406,28.6730664,77.1710893,28.6728475,77.1711375,28.6729087,77.1712019,28.672984,77.1707459,28.6733158,77.1707808,28.6733653,77.1704081,28.6736657,77.170121,28.6738971,77.1700727,28.6738595,77.1696704,28.6742383,77.169507,28.6741117,77.1699255,28.6737164,77.1698665,28.673674",way/707859994,Mumabi,Inderlok Metro Station,,yes,yes,Inderlok Metro Station (Red Line),Delhi Metro,DMRC,,station,station,subway,yes,www.delhimetrorail.com,yes,Q4207366,en:Inderlok metro station,,,1,,,,,,,,,,,,,,,,,,,,,,,,,,,,
28.6724089,77.1690094,,Polygon,"77.1690094,28.6724089,77.1692212,28.6725901,77.1693419,28.6726866,77.1694149,28.6727397,77.1697201,28.6729619,77.1698477,28.6730903,77.1702417,28.6733935,77.1700822,28.6735127,77.1697094,28.673209,77.1693123,28.6728938,77.1692053,28.6728088,77.1691461,28.6727619,77.1688833,28.6725477,77.1689021,28.6724842,77.1689477,28.6724371,77.168986,28.6724196,77.1690094,28.6724089",way/707859998,,inderlok Metro Station,,yes,yes,Inderlok Meto Station (Green Line),Delhi Metro,DMRC,,station,station,subway,yes,www.delhimetrorail.com,yes,Q4207366,en:Inderlok metro station,,,1,,,,,,,,,,,,,,,,,,,,,,,,,,,,
28.6527444,77.1316496,,Point,,node/249823635,,,,,,Ramesh Nagar,Delhi Metro,Delhi Metro Rail Corporation,,,station,subway,yes,,,Q259656,,,,,,,,,,,,,,,,,,,,,,,,,,,,,,,,
28.6450527,77.1693179,,Point,,node/268217229,,,,,,Patel Nagar (East),Delhi Metro,Delhi Metro Rail Corporation,,,station,subway,yes,,,,,ಪಟೇಲ್ ನಗರ್,,,,,,,,,,,,,,,,,,,,,,,,,,,,,,
28.7208064,77.1071813,,Point,,node/268381455,,,,,,Rithala,DMRC,Delhi Metro,,station,station,subway,yes,,,Q4207358,,,,,,,,,,,,,,,,,,,,,,,,,,,,,,,,
28.6667177,77.1988974,,Point,,node/268381457,,,,,,Pratap Nagar,DMRC,Delhi Metro,,station,station,subway,yes,,,Q7238590,,,,,,,,,,,,,,,,,,,,,,,,,,,,,,,,
28.6664068,77.2074156,,Point,,node/268381463,,,,,,Pul Bangash,DMRC,Delhi Metro,,station,station,subway,yes,,,,,,,,,,,,,,,,,,,,,,,,,,,,,,,,,,,
28.6674493,77.2282488,,Point,,node/268381477,,,,,,Kashmere Gate,DMRC,Delhi Metro,,station,station,subway,yes,,,Q4207344,en:Kashmere Gate metro station,,,,,,,,,,,,,,,,,,,,,,,,,,,,,,,
28.6980415,77.1405393,,Point,,node/311963955,,,,,,Kohat Enclave,DMRC,Delhi Metro,,station,station,subway,yes,,,Q6425927,,,,,,,,,,,,,,,,,,,,,,,,,,,,,,,,
28.6440122,77.1885235,,Point,,node/345234441,,,,,,Karol Bagh,Delhi Metro,Delhi Metro Rail Corporation,,,station,subway,yes,,,Q6373014,en:Karol Bagh metro station,ಕರೋಲ್ ಭಾಗ್,,,,,,,,,,,,,,,,,,,,,,,,,,,,,,
28.6558178,77.1507061,,Point,,node/347676531,,,,,,Kirti Nagar,Delhi Metro,Delhi Metro Rail Corporation,,,station,subway,yes,,,,,,,,,,,,,,,,,,,,,,,,,,,,,,,,,,,
28.6516362,77.1582947,,Point,,node/347676595,,,,,,Shadipur,Delhi Metro,Delhi Metro Rail Corporation,,,station,subway,yes,,,Q11306954,,ಷಾದಿಪುರ್,,,,,,,no,,,,,,,,,,,,,,,,,,,,,,,
28.657859,77.1424288,,Point,,node/347676947,,,,,,Moti Nagar,Delhi Metro,Delhi Metro Rail Corporation,,station,station,subway,yes,,,Q6917665,,,,,,,,,,,,,,,,,,,,,,,,,,,,,,,,
28.5487982,77.1208089,,Point,,node/554257763,,,,,,Delhi Aerocity,DMRC,,,stop_position,station,subway,yes,,,Q5253729,,,,,,,,,,,,,,,,,,,,,,,,,,,,,,,,
28.5442564,77.2067072,,Point,,node/554257787,,,,,,Hauz Khas,IN:DMRC:YELLOW,Delhi Metro Rail Corporation Ltd.,,station,station,subway,yes,,,Q271195,en:Delhi Metro,ಹೌಸ್ ಖಾಜ಼್,,,,حوض خاص,,,,no,حوض خاص,yes,yes,yes,yes,yes,,,,,,,,,,,,,,,,
28.6289139,77.211311,,Point,,node/554257833,,,,,,ONGC Shivaji Stadium,DMRC,DMRC,,stop_position,station,subway,yes,,,Q11308729,en:Shivaji Stadium metro station,ಓಎನ್ಜಿಸಿ ಶಿವಾಜಿ ಸ್ಟೇಡಿಯಮ್,,,,,,,,,,,,,,,,,,,,,,,,,,,,,,
28.6297527,77.2249956,,Point,,node/554257839,,,,,,Barakhambha Road,Delhi Metro,Delhi Metro Rail Corporation,,stop_position,stop,subway,yes,,,,,,,,,,,,,,,,,,,,,,,,,,,,,,,,,,,
28.6434826,77.2227421,,Point,,node/554257841,,,,,,New Delhi,DMRC,,,,station,subway,yes,,,Q3634456,en:New Delhi metro station,,,,,,,,,,,,,,,,NDLS,,,,,,,,,,,,,,,
28.6671626,77.2166306,,Point,,node/561316983,,,,,,Tis Hazari,DMRC,Delhi Metro,,station,station,subway,yes,,yes,Q3632416,,,,,,,,,,,,,,,,,,,,,,,,,,,,,,,,
28.5882486,77.2338082,,Point,,node/562620239,,,,,,Jawaharlal Nehru Stadium,DMRC,,,stop_position,station,subway,yes,,,,,,,,,,,,,,,,,,,,,,,,,,,,,,,,,,,
28.5644043,77.2342783,,Point,,node/562620810,,,,,,Moolchand,DMRC,,,stop_position,station,subway,yes,,,,,,,,,,,,,,,,,,,,,,,,,,,,,,,,,,,
28.5384251,77.2830377,,Point,,node/562622101,,,,,,Jasola Apollo,DMRC,,,stop_position,station,subway,yes,,,Q17058781,en:Jasola Apollo metro station,,,,,,,,,,,,,,,,,,,,,,,,,,,,,,,
28.5285737,77.2883311,,Point,,node/562622242,,,,,,Sarita Vihar,DMRC,,,stop_position,station,subway,yes,,,Q7424130,en:Sarita Vihar metro station,,,,,,,,,,,,,,,,,,,,,,,,,,,,,,,
28.5023598,77.2992401,,Point,,node/562622248,,,,,,Tughlakabad,DMRC,,,stop_position,station,subway,yes,,,Q7851651,en:Tughlakabad Station metro station,,,,,,,,,,,,,,,,,,,,,,,,,,,,,,,
28.4931698,77.3030239,,Point,,node/562722447,,,,,,Badarpur,DMRC,,,stop_position,station,subway,yes,,,Q4840629,en:Badarpur Border metro station,,,,,,,,,,,,,,,,,,,,,,,,,,,,,,,
28.6684339,77.2505301,,Point,,node/663755930,,,,,,Shastri Park,DMRC,Delhi Metro,,station,station,subway,yes,,,Q11307901,,,,,,,,,,,,,,,,,,,,,,,,,,,,,,,,
28.6698165,77.2668137,,Point,,node/663758609,,,,,,Seelampur,DMRC,Delhi Metro,,station,station,subway,yes,,,Q7445815,,,,,,,,,,,,,,,,,,,,,,,,,,,,,,,,
28.6717524,77.2778548,,Point,,node/663758748,,,,,,Welcome (Red Line),DMRC,Delhi Metro,,station,station,subway,yes,,,Q11288582,,,,,,,,,,,,,,,,,,,,,,,,,,,,,,,,
28.6733333,77.2890248,,Point,,node/663758998,,,,,,Shahdara,DMRC,Delhi Metro,,station,station,subway,yes,,,Q11307902,en:Shahdara metro station,,,,,,,,,,,,,,,,,,,,,,,,,,,,,,,
28.6753858,77.3008689,,Point,,node/663759674,,,,,,Mansarovar,DMRC,Delhi Metro,,station,station,subway,yes,,,,,,,,,,,,,,,,,,,,MANR,,,,,,,,,,,,,,,
28.6757197,77.3123949,,Point,,node/663759851,,,,,,Jhilmil,DMRC,Delhi Metro,,station,station,subway,yes,,,Q6191072,,,,,,,,,,,,,,,,,,,,,,,,,,,,,,,,
28.6758257,77.3215163,,Point,,node/663759934,,,,,,Dilshad Garden,DMRC,Delhi Metro,,station,station,subway,yes,,,Q4207341,,,,,,,,,,,,,,,,,,,,,,,,,,,,,,,,
28.6700885,77.1818589,,Point,,node/663761411,,,,,,Shastri Nagar,DMRC,Delhi Metro,,station,station,subway,yes,,,Q11307659,en:Shastri Nagar metro station,,,,,,,,,,,,,,,,,,,,,,,,,,,,,,,
28.6735891,77.1703467,,Point,,node/663761428,,,,,,Inderlok (Red Line),DMRC,Delhi Metro Rail Corporation,,station,station,subway,yes,,,Q4207366,en:Inderlok metro station,,,,,,,,,,,,,,,,,Trinagar,,,,,,,,,,,,,,
28.6824082,77.1647754,,Point,,node/663761505,,,,,,Kanhaiya Nagar,DMRC,Delhi Metro,,station,station,subway,yes,,,Q11295526,,,,,,,,,,,,,,,,,,,,,,,,,,,,,,,,
28.6889264,77.1616833,,Point,,node/663762151,,,,,,Keshav Puram,DMRC,Delhi Metro,,station,station,subway,yes,,,Q6394986,,,,,,,,,,,,,,,,,,,,,,,,,,,,,,,,
28.6960485,77.1524856,,Point,,node/663762964,,,,,,Netaji Subhash Place (Red Line),Delhi Metro,Delhi Metro Rail Corporation,,station,station,subway,yes,,,Q6998648,,,,,,,,,,,,,,,,,,,,,,,,,,,,,,,,
28.7032676,77.1322497,,Point,,node/663765153,,,,,,Pitam Pura,DMRC,Delhi Metro,,station,station,subway,yes,,,Q7198601,en:Pitam Pura metro station,,,,,,,,,,,,,,,,,,,,,,,,,,,,,,,
28.7079009,77.1259691,,Point,,node/663766390,,,,,,Rohini East,DMRC,Delhi Metro,,station,station,subway,yes,,,Q11351030,,,,,,,,,,,,,,,,,,,,,,,,,,,,,,,,
28.6414409,77.2952594,,Point,,node/663793549,,,,,,Preet Vihar,DMRC,,,stop_position,station,subway,yes,,,Q7239761,,,,,,,,,,,,,,,,,,,,,,,,,,,,,,,,
28.6364928,77.2867943,,Point,,node/663793972,,,,,,Nirman Vihar,DMRC,,,stop_position,station,subway,yes,,,Q7040065,,,,,,,,,,,,,,,,,,,,,,,,,,,,,,,,
28.6305526,77.277575,,Point,,node/663794722,,,,,,Laxmi Nagar,DMRC,,,stop_position,station,subway,yes,,,Q6505213,,ಲಕ್ಷ್ಮಿ ನಗರ್,,,,,,,,,,,,,,,,Lakshmi Nagar,,,,,,,,,,,,,,
28.5431246,77.2755616,,Point,,node/856302882,,,,,,Harkesh Nagar Okhla,DMRC,,,stop_position,station,subway,yes,,,Q7081967,en:Harkesh Nagar Okhla metro station,,,,,,,,,,,,,,,,OKA,,,,,,,,,,,,,,,
28.6981558,77.2064225,,Point,,node/913485885,,,,,,GTB Nagar;Guru Tegh Bahadur Nagar,DMRC,,,station,station,subway,yes,,,Q795125,,,,,,,,,,,,,,,,,,,,,,,,,,,,,,,,
28.5443766,77.264266,,Point,,node/927873461,,,,,,Govind Puri,DMRC,,,stop_position,station,subway,yes,,,Q5589852,,,,,,,,,,,,,,,,,,,,,,,,,,,,,,,,
28.5564781,77.0867345,,Point,,node/927873494,,,,,,Indira Gandhi International Airport,DMRC,,,station,station,subway,yes,,,,,,,,,,,,,,,,,,,,,,,,,,,,,,,,,,,
28.5494816,77.25909,,Point,,node/927873510,,,,,,Kalkaji Mandir,DMRC,,,,station,subway,yes,,,,,,,,,,,,,,,,,,,,,,,,,,,,,,,,,,,
28.5918905,77.1617034,,Point,,node/927873513,,,,,,Dhaula Kuan,DMRC,,,stop_position,station,subway,yes,,,Q5269438,,,,,,,,,,,,,,,,,,,,,,,,,,,,,,,,
28.6424786,77.2231116,,Point,,node/938409545,,,,,,New Delhi Airport Express Terminal,DMRC,,,,station,subway,yes,,,,,,,,,,,,,,,,,,,,,,,,,,,,,,,,,,,
28.6158697,77.2123611,,Point,,node/1665772897,,,,,,Central Secretariat,DMRC,,,,station,subway,yes,,,Q5061812,,ಸೆಂಟ್ರಲ್ ಸೆಕ್ರೆಟರಿಸ್ಟ್,,,,,,,,,,,,,,,,,,,,,,,,,,,,,,
28.5197198,77.2945917,,Point,,node/1706019482,,,,,,Mohan Estate,DMRC,,,stop_position,station,subway,yes,,,Q6893528,en:Mohan Estate metro station,,,,,,,,,,,,,,,,,,,,,,,,,,,,,,,
28.6545409,77.1513605,,Point,,node/1824659702,,,,,,Kirti Nagar,DMRC,,,,station,subway,yes,,,,,,,,,,,,,,,,,,,,,,,,,,,,,,,,,,,
28.6619327,77.1574772,,Point,,node/1824659742,,,,,,Satguru Ramsingh Marg,DMRC,,,station,station,subway,yes,,,,,,,,,,,,,,,,,,,,,,,,,,,,,,,,,,,
28.7149569,77.115385,,Point,,node/1988598418,,,,,,Rohini West,DMRC,Delhi Metro,,station,station,subway,yes,,,Q7359754,,,,,,,,,,,,,,,,,,,,,,,,,,,,,,,,
28.6240472,77.2192877,,Point,,node/1988668271,,,,,,Janpath,DMRC,,,stop_position,station,subway,yes,,,,,ಜನ್ಪತ್,,,,,,,,,,,,,,,,,,,,,,,,,,,,,,
28.6500446,77.2376857,,Point,,node/1988668281,,,,,,Jama Masjid,,,,stop_position,station,subway,yes,,,,,,,,,,,,,,,,,,,,,,,,,,,,,,,,,,,
28.6125475,76.9862942,,Point,,node/2579042823,,,,,,Dhansa Bus Stand,DMRC,,,,station,subway,,,,,,,,,,,,,,,,,,,,,,,station,yes,,,,,,,,,,,,
28.6686787,77.2280516,,Point,,node/2714387550,,,,,,Kashmere Gate,DMRC,,,station,station,subway,yes,,,,,,,,,,,,,,,,,,,,,,,,,,,,,,,,,,,
28.543374,77.2050228,,Point,,node/2832938172,,,,,,Hauz Khas,DMRC,,,,station,subway,yes,,,,,,,,,حوض خاص,,,,,حوض خاص,,,,,,,,,,,,,,,,,,,,,
28.5544908,77.264817,,Point,,node/2832938180,,,,,,Okhla NSIC,DMRC,,,stop_position,station,subway,yes,,,,,,,,,,,,,,,,,,,,,,,,,,,,,,,,,,,
28.5568967,77.1750592,,Point,,node/2832938185,,,,,,Munirka,DMRC,,,,station,subway,yes,,,,,,,,,,,,,,,,,,,,,,,,,,,,,,,,,,,
28.5597477,77.2749004,,Point,,node/2832938187,,,,,,Sukhdev Vihar,Delhi Metro,DMRC,,station,station,subway,yes,,,Q28172610,,,,,,,,,,,,,,,,,,,,,,,,,,,,,,,,
28.557808,77.1610899,,Point,,node/2832938196,,,,,,Vasant Vihar,DMRC,,,stop_position,station,subway,yes,,,,,,,,,,,,,,,,,,,,,,,,,,,,,,,,,,,
28.5608275,77.140254,,Point,,node/2832938301,,,,,,Shankar Vihar,DMRC,,,stop_position,station,subway,yes,,,,,,,,,,,,,,,,,,,,,,,,,,,,,,,,,,,
28.5771509,77.1111533,,Point,,node/2832938307,,,,,,Sadar Bazaar Cantonment,DMRC,,,stop_position,station,subway,yes,,,,,,,,,,,,,,,,,,,,DSB,,,,,,,,,,,,,,,
28.6018751,77.0823561,,Point,,node/2832938324,,,,,,Dashrath Puri,DMRC,,,stop_position,station,subway,yes,,,,,,,,,,,,,,,,,,,,,,,,,,,,,,,,,,,
28.6157555,77.085178,,Point,,node/2832938325,,,,,,Dabri Mor,DMRC,,,stop_position,station,subway,yes,,,,,,,,,,,,,,,,,,,,,,,,,,,,,,,,,,,
28.6289502,77.0779235,,Point,,node/2832938329,,,,,,Janakpuri West,DMRC,,,stop_position,station,subway,yes,,,,,,,,,,,,,,,,,,,,,,,,,,,,,,,,,,,
28.5418724,77.2384643,,Point,,node/2833058716,,,,,,Greater Kailash,Delhi Metro,DMRC,,station,station,subway,yes,,,,,,,,,,,,,,,,,,,,,,,,,,,,,,,,,,,
28.542916,77.3101107,,Point,,node/2833058718,,,,,,Kalindi Kunj,DMRC,,,,station,subway,yes,,,,,,,,,,,,,,,,,,,,,,,,,,,,,,,,,,,
28.5503728,77.256934,,Point,,node/2833058719,,,,,,Kalkaji Mandir,Delhi Metro,DMRC,,station,station,subway,yes,,,,,,,,,,,,,,,,,,,,,,,,,,,,,,,,,,,
28.5613002,77.2919304,,Point,,node/2833058720,,,,,,Okhla Vihar,DMRC,,,,station,subway,yes,,,,,,,,,,,,,,,,,,,,,,,,,,,,,,,,,,,
28.5423747,77.2210916,,Point,,node/2833058721,,,,,,Panchsheel Park,Delhi Metro,DMRC,,,station,subway,yes,,,,,,,,,,,,,,,,,,,,,,,,,,,,,,,,,,,
28.5503864,77.1855171,,Point,,node/2833058722,,,,,,R. K Puram,DMRC,,,,station,subway,yes,,,,,,,,,,,,,,,,,,,,,,,,,,,,,,,,,,,
28.5458279,77.2966578,,Point,,node/2833058723,,,,,,Jasola Vihar Shaheen Bagh,DMRC,,,,station,subway,yes,,,,,,,,,,,,,,,,,,,,,,,,,,,,,,,,,,,
28.5648599,77.1226212,,Point,,node/2833058753,,,,,,Terminal 1 Indira Gandhi Airport,DMRC,,,stop_position,station,subway,yes,,,,,,,,,,,,,,,,,,,,,,,,,,,,,,,,,,,
28.613453,77.3088549,,Point,,node/2833531907,,,,,,Trilokpuri Sanjay Lake,DMRC,Delhi Metro Rail Corporation,,station,station,subway,yes,,,Q28172740,,,,,,,,,,,,,,,,,,,,,,,,,,,,,,,,
28.6468336,77.3158749,,Point,,node/2833971686,,,,,,Anand Vihar (Blue Line),DMRC,Delhi Metro Rail Corporation,,station,station,subway,yes,,,Q4751288,,ಆನಂದ್ ವಿಹಾರ್,,,,,,,,,,,,,,,ANVR,,,,2,,,,,,,,,,,
28.6493434,77.3060686,,Point,,node/2833971689,,,,,,Karkarduma (Pink Line),DMRC,Delhi Metro Rail Corporation,,station,station,subway,yes,,,,,ಕರ್ಕರ್ದುಮ,,,,,,,,,,,,,,,,,,,,,,,,,,,,,,
28.7446158,77.1382654,,Point,,node/2837147019,,,,,,Samaypur Badli,,,,stop_position,station,subway,yes,,,,,,,,,,,,,,,,,,,,BHD,,,,,,,,,,,,,,,
28.7383477,77.1398323,,Point,,node/2837147020,,,,,,Rohini Sector 18,,,,stop_position,station,subway,yes,,,,,,,,,,,,,,,,,,,,,,,,,,,,,,,,,,,
28.5630488,77.2863387,,Point,,node/3284155408,,,,,,Jamia Millia Islamia,Delhi Metro,DMRC,,station,station,subway,yes,,,,,,,,,,,,,,,,,,,,,,,,,,,,,,,,,,,
28.6281909,77.2410728,,Point,,node/3580369626,New Delhi,,,,,ITO,,,,stop_position,station,subway,yes,,,,,ಐಟಿಓ,,,,,,,,,,,,,,,,,,,,,,,,,,,,,,
28.5410914,77.2302907,,Point,,node/3832323219,,,,,,Chirag Delhi,DMRC,,,stop_position,station,subway,yes,,,,,,,,,,,,,,,,,,,,,,,,,,,,,,,,,,,
28.6318533,77.3107856,,Point,,node/4676900918,,,,,,IP Extension,DMRC,Delhi Metro Rail Corporation,,station,station,subway,yes,,,,,,,,,,,,,,,,,,,,,,,,,,,,,,,,,,,
28.6536001,77.2957877,,Point,,node/4676900919,,,,,,Karkarduma Court,DMRC,Delhi Metro Rail Corporation,,station,station,subway,yes,,,,,,,,,,,,,,,,,,,,,,,,,,,,,,,,,,,
28.6200437,77.3054069,,Point,,node/4676900933,,,,,,East Vinod Nagar - Mayur Vihar - II,DMRC,Delhi Metro Rail Corporation,,station,station,subway,yes,,,,,,,,,,,,,,,,,,,,,,,,,,,,,,,,,,,
28.6249712,77.3044906,,Point,,node/4676901224,,,,,,Mandawali - West Vinod Nagar,DMRC,Delhi Metro Rail Corporation,,station,station,subway,yes,,,,,,,,,,,,,,,,,,,,,,,,,,,,,,,,,,,
28.7299398,77.1491044,,Point,,node/5397665618,,,,,,Haiderpur Badli Mor,,,,station,station,subway,yes,,,,,,,,,,,,,,,,,,,,,,,,,,,,,,,,,,,
28.6158794,77.2122822,,Point,,node/5453646586,,,,,,Central Secretariat,DMRC,,,station,station,subway,yes,,,Q5061812,,ಸೆಂಟ್ರಲ್ ಸೆಕ್ರೆಟರಿಸ್ಟ್,,,,,,,,,,,,,,,,,,,,yes,,,,,,,,,,
28.6675343,77.2281803,,Point,,node/5453649433,,,,,,Kashmere Gate,DMRC,Delhi Metro,,,station,subway,yes,,,,,,,,,,,,,,,,,,,,,,,,,,,,,,,,,,,
28.6297873,77.2250214,,Point,,node/5737167209,,,,,,Barakhambha Road,Delhi Metro,Delhi Metro Rail Corporation,,stop_position,stop,subway,yes,,,,,,,,,,,,,,,,,,,,,,,,,,,,,,,,,,,
28.586443,77.0494433,,Point,,node/5737168025,,,,,,Dwarka Sector 11,Delhi Metro,Delhi Metro Rail Corporation,,station,station,subway,yes,,,Q5317945,,,,,,,,,,,,,,,,,,,,,,,,,,,,,,,,
28.6424955,77.1782756,,Point,,node/5781445033,,,,,,Rajendra Place,DMRC,,,,station,subway,,,,Q7286033,,ರಾಜೇಂದ್ರ ಪ್ಯಾಲೇಸ್,,,,,,,,,,,,,,,,,,,,,,,,,,,,,,
28.5460584,77.2515057,,Point,,node/5795235047,,,,,,Nehru Enclave,DMRC,,,,station,subway,,,,Q28172606,,,,,,,,,,,,,,,,,,,,,,,,,,,,,,,,
28.721381,77.2894599,,Point,,node/6049373291,,,,,,Shiv Vihar,DMRC,Delhi Metro Rail Corporation,,station,station,subway,yes,,,,,,,,,,,,,,,,,,,,,,,,,,,,,,,,,,,
28.7024752,77.2861253,,Point,,node/6049373293,,,,,,Gokulpuri,DMRC,Delhi Metro Rail Corporation,,station,station,subway,yes,,,,,,,,,,,,,,,,,,,,,,,,,,,,,,,,,,,
28.6920781,77.2796973,,Point,,node/6049373294,,,,,,Maujpur-Babarpur,DMRC,Delhi Metro Rail Corporation,,station,station,subway,yes,,,Q28172749,,,,,,,,,,,,,,,,,,,,,,,,,,,,,,,,
28.6826822,77.2748055,,Point,,node/6049373295,,,,,,Jaffrabad,DMRC,Delhi Metro Rail Corporation,,station,station,subway,yes,,,,,,,,,,,,,,,,,,,,,,,,,,,,,,,,,,,
28.6723623,77.2770716,,Point,,node/6049373296,,,,,,Welcome (Pink Line),DMRC,Delhi Metro Rail Corporation,,station,station,subway,yes,,,,,,,,,,,,,,,,,,,,,,,,,,,,,,,,,,,
28.6646964,77.284881,,Point,,node/6049373297,,,,,,East Azad Nagar,DMRC,Delhi Metro Rail Corporation,,station,station,subway,yes,,,,,,,,,,,,,,,,,,,,,,,,,,,,,,,,,,,
28.6578461,77.2901853,,Point,,node/6049373298,,,,,,Krishna Nagar,DMRC,Delhi Metro Rail Corporation,,station,station,subway,yes,,,,,,,,,,,,,,,,,,,,,,,,,,,,,,,,,,,
28.521168,77.2022237,,Point,,node/6179179025,,,,,,Saket,IN:DMRC:YELLOW,Delhi Metro Rail Corporation Ltd.,,station,station,subway,yes,,,,,ಸಾಕೇತ್,,,,,,,,,,yes,yes,yes,yes,yes,,,,,,,yellow,,,,,,,,,
28.7244312,77.181964,,Point,,node/6196100475,,,,,,Majlis Park,DMRC,Delhi Metro Rail Corporation,,station,station,subway,yes,,,,,,,,,,,,,,,,,,,,,,,,2,,,,,,,,,,,
28.565871,77.2492973,,Point,,node/6196100477,,,,,,Vinobapuri,DMRC,,,platform,station,subway,yes,,,,,,,,,,,,,,,,,,,,,,,,,,,,,,,,,,,
28.6036425,77.2909319,,Point,,node/6196100478,,,,,,Mayur Vihar - I (Pink Line),DMRC,Delhi Metro Rail Corporation,,station,station,subway,yes,,yes,Q6798106,,,,,,,,,,,,,,,,,,,,,,,,no,,,,,,,,
28.6058619,77.2987023,,Point,,node/6196100479,,,,,,Mayur Vihar Pocket 1,DMRC,Delhi Metro Rail Corporation,,station,station,subway,yes,,,,,,,,,,,,,,,,,,,,,,,,,,,,,,,,,,,
28.5887494,77.2572494,,Point,,node/6196100480,,,,,,Sarai Kale Khan - Nizamuddin,DMRC,,,platform,station,subway,yes,,yes,,,,,,,,,,,,,,,,,,,,,,,,,,realtime,yes,,,,,,
28.5724231,77.2585979,,Point,,node/6196100481,,,,,,Ashram,DMRC,,,station,station,subway,yes,,,Q28172734,,,,,,,,,,,,,,,,,,,,,,,,,,,,,,,,
28.5785326,77.175741,,Point,,node/6453544485,,,,,,Sir Vishweshwaraiah Moti Bagh,DMRC,Delhi Metro Rail Corporation,,station,station,subway,yes,,,,,,,,,,,,,,,,,,,,,,,,,,,,,,,,,,,
28.5702618,77.1878709,,Point,,node/6453544486,,,,,,Bhikaji Cama Place,DMRC,Delhi Metro Rail Corporation,,station,station,subway,yes,,,,,,,,,,,,,,,,,,,,,,,,,,,,,,,,,,,
28.5736524,77.2075857,,Point,,node/6453544487,,,,,,INA (Pink Line),DMRC,Delhi Metro Rail Corporation,,station,station,subway,yes,,,,,,,,,,,,,,,,,,,,,,,,,,,,,,,,,,,
28.56958,77.2385055,,Point,,node/6453544488,,,,,,Lajpat Nagar (Pink Line),DMRC,Delhi Metro Rail Corporation,,station,station,subway,yes,,,,,,,,,لاجبت نغر,,,,,لاجپت نگر,,,,,,,,,,,,,,,,,,,,,
28.5685664,77.2205677,,Point,,node/6453544489,,,,,,South Extension,DMRC,Delhi Metro Rail Corporation,,station,station,subway,yes,,,,,,,,,,,,,,,,,,,,,,,,,,,,,,,,,,,
28.6371795,77.1297333,,Point,,node/6453544492,,,,,,Mayapuri,Delhi Metro Rail Corporation,DMRC,,station,station,subway,yes,,,,,,,,,,,,,,,,,,,,,,,,,,,,,,,,,,,
28.6511896,77.1242597,,Point,,node/6453992648,,,,,,Rajouri Garden (Pink Line),DMRC,Delhi Metro Rail Corporation,,station,station,subway,yes,,,Q7286379,,,,,,,,,,,,,,,,,,,,,,,,,,,,,,,,
28.6490563,77.1227198,,Point,,node/6453992649,,,,,,Rajouri Garden (Blue Line),DMRC,Delhi Metro Rail Corporation,,station,station,subway,yes,,,Q7286379,,,,,,,,,,,,,,,,,,,,,,,,,,,,,,,,
28.6947146,77.1542607,,Point,,node/6453992650,,,,,,Netaji Subhash Place (Pink Line),DMRC,Delhi Metro Rail Corporation,,station,station,subway,yes,,,,,,,,,,,,,,,,,,,,,,,,,,,,,,,,,,,
28.705795,77.1819702,,Point,,node/6453992651,,,,,,Azadpur (Pink Line),DMRC,Delhi Metro Rail Corporation,,station,station,subway,yes,,,,,,,,,,,,,,,,,,,,,,,,,,,,,,,,,,,
28.7070448,77.1803722,,Point,,node/6453992652,,,,,,Azadpur (Yellow Line),DMRC,Delhi Metro Rail Corporation,,station,station,subway,yes,,,,,,,,,,,,,,,,,,,,,,,,,,,,,,,,,,,
28.5741769,77.2093017,,Point,,node/6453992653,,,,,,INA (Yellow Line),DMRC,Delhi Metro Rail Corporation,,station,station,subway,yes,,,,,,,,,,,,,,,,,,,,,,,,,,,,,,,,,,,
28.5705968,77.2364011,,Point,,node/6453992654,,,,,,Lajpat Nagar (Violet Line),DMRC,Delhi Metro Rail Corporation,,station,station,subway,yes,,,,,,,,,لاجبت نغر,,,,,لاجپت نگر,,,,,,,,,,,,,,,,,,,,,
28.6466157,77.3155317,,Point,,node/6454015469,,,,,,Anand Vihar (Pink Line),DMRC,Delhi Metro Rail Corporation,,station,station,subway,yes,,,Q4751288,,ಆನಂದ್ ವಿಹಾರ್,,,,,,,,,,,,,,,ANVR,,,,,,,,,,,,,,,
28.6483176,77.3055178,,Point,,node/6458130120,,,,,,Karkarduma (Blue Line),DMRC,Delhi Metro Rail Corporation,,station,station,subway,yes,,,Q6371278,,ಕರ್ಕರ್ದುಮ,,,,,,,,,,,,,,,,,,,,,,,,,,,,,,
28.6086496,77.1404515,,Point,,node/6458165644,,,,,,Delhi Cantonment,DMRC,Delhi Metro Rail Corporation,,station,station,subway,yes,,,Q28172737,,,,,,,,,,,,,,,,,,,,,2,,,,,,,,,,,
28.7019574,77.1654317,,Point,,node/6458202840,,,,,,Shalimar Bagh,DMRC,Delhi Metro Rail Corporation,,station,station,subway,yes,,,,,,,,,,,,,,,,,,,,,,,,,,,,,,,,,,,
28.6857668,77.1496094,,Point,,node/6458202841,,,,,,Shakurpur,DMRC,Delhi Metro Rail Corporation,,station,station,subway,yes,,,,,,,,,,,,,,,,,,,,,,,,,,,,,,,,,,,
28.575817,77.1980786,,Point,,node/6458202842,,,,,,Sarojini Nagar,DMRC,Delhi Metro Rail Corporation,,station,station,subway,yes,,,,,,,,,,,,,,,,,,,,,,,,,,,,,,,,,,,
28.6727663,77.1392109,,Point,,node/6458202843,,,,,,Punjabi Bagh West,DMRC,Delhi Metro Rail Corporation,,station,station,subway,yes,,,,,,,,,,,,,,,,,,,,,,,,,,,,,,,,,,,
28.6243852,77.1364438,,Point,,node/6458202844,,,,,,Naraina Vihar,DMRC,Delhi Metro Rail Corporation,,station,station,subway,yes,,,,,,,,,,,,,,,,,,,,,,,,,,,,,,,,,,,
28.6580737,77.1272678,,Point,,node/6458202845,,,,,,ESI Hospital,DMRC,Delhi Metro Rail Corporation,,station,station,subway,yes,,,Q28172735,,,,,,,,,,,,,,,,,,,,,2,,,,,,,,,,,
28.6727066,77.1691872,,Point,,node/6465991434,,,,,,Inderlok (Green Line),DMRC,Delhi Metro Rail Corporation,,station,station,subway,yes,,,Q4207366,en:Inderlok metro station,,,,,,,,,,,,,,,,,Trinagar,,,,,,,,,,,,,,
28.6716045,77.155291,,Point,,node/6465991435,,,,,,Ashok Park Main,DMRC,Delhi Metro Rail Corporation,,station,station,subway,yes,,,Q4207354,en:Ashok Park Main metro station,,,,,,,,,,,,,,,,,,,,,,,,,,,,,,,
28.672995,77.1461239,,Point,,node/6465991436,,,,,,Punjabi Bagh,DMRC,Delhi Metro Rail Corporation,,station,station,subway,yes,,,Q7141807,en:Punjabi Bagh metro station,,,,,,,,,,,,,,,,,,,,,,,,,,,,,,,
28.6750317,77.1304722,,Point,,node/6465991437,,,,,,Shivaji Park,DMRC,Delhi Metro Rail Corporation,,station,station,subway,yes,,,Q7499286,en:Shivaji Park metro station,,,,,,,,,,,,,,,,,,,,,,,,,,,,,,,
28.6764752,77.1193599,,Point,,node/6465991438,,,,,,Madipur,DMRC,Delhi Metro Rail Corporation,,station,station,subway,yes,,,Q6727807,en:Madipur metro station,,,,,,,,,,,,,,,,,,,,,,,,,,,,,,,
28.6773985,77.1122953,,Point,,node/6465991439,,,,,,Paschim Vihar East,DMRC,Delhi Metro Rail Corporation,,station,station,subway,yes,,,Q20718098,en:Paschim Vihar East metro station,,,,,,,,,,,,,,,,,,,,,,,,,,,,,,,
28.6786514,77.1022255,,Point,,node/6465991440,,,,,,Paschim Vihar West,DMRC,Delhi Metro Rail Corporation,,station,station,subway,yes,,,Q7141809,en:Paschim Vihar West metro station,,,,,,,,,,,,,,,,,,,,,,,,,,,,,,,
28.6798074,77.0926793,,Point,,node/6465991441,,,,,,Peera Garhi,DMRC,Delhi Metro Rail Corporation,,station,station,subway,yes,,,Q7160416,en:Peera Garhi metro station,,,,,,,,,,,,,,,,,,,,,,,,,,,,,,,
28.681103,77.0808492,,Point,,node/6465991442,,,,,,Udyog Nagar,DMRC,Delhi Metro Rail Corporation,,station,station,subway,yes,,,Q7877393,en:Udyog Nagar metro station,,,,,,,,,,,,,,,,,,,,,,,,,,,,,,,
28.6818775,77.074,,Point,,node/6465991443,,,,,,Surajmal Stadium,DMRC,Delhi Metro Rail Corporation,,station,station,subway,yes,,,Q7645348,en:Surajmal Stadium metro station,,,,,,,,,,,,,,,,,,,,,,,,,,,,,,,
28.6824007,77.0647319,,Point,,node/6465991444,,,,,,Nangloi,DMRC,Delhi Metro Rail Corporation,,station,station,subway,yes,,,Q6963528,en:Nangloi metro station,,,,,,,,,,,,,,,,,,,,,,,,,,,,,,,
28.6822009,77.0562463,,Point,,node/6465991445,,,,,,Nangloi Railway Station,DMRC,Delhi Metro Rail Corporation,,station,station,subway,yes,,,Q6963529,en:Nangloi Railway Station metro station,,,,,,,,,,,,,,,,,,,,,,,,,,,,,,,
28.6823085,77.0439437,,Point,,node/6465991446,,,,,,Rajdhani Park,DMRC,Delhi Metro Rail Corporation,,station,station,subway,yes,,,Q7285915,en:Rajdhani Park metro station,,,,,,,,,,,,,,,,,,,,,,,,,,,,,,,
28.6824341,77.0305741,,Point,,node/6465991447,,,,,,Mundka,DMRC,Delhi Metro Rail Corporation,,station,station,subway,yes,,,Q6935833,en:Mundka metro station,,,,,,,,,,,,,,,,MQC,,,,,,,,,,,,,,,
28.6834491,77.0171333,,Point,,node/6465991448,,,,,,Mundka Industrial Area,DMRC,Delhi Metro Rail Corporation,,station,station,subway,yes,,,Q30591459,en:Mundka Industrial Area metro station,,,,,,,,,,,,,,,,,,,,,,,,,,,,,,,
28.6852384,76.9961591,,Point,,node/6465991449,,,,,,Ghevra Metro Station,DMRC,Delhi Metro Rail Corporation,,station,station,subway,yes,,,Q30591460,en:Ghevra Metro Station,,,,,,,,,,,,,,,,,,,,,,,,,,,,,,,
28.6868661,76.9772069,,Point,,node/6465991450,,,,,,Tikri Kalan,DMRC,Delhi Metro Rail Corporation,,station,station,subway,yes,,,Q30591461,en:Tikri Kalan metro station,,,,,,,,,,,,,,,,,,,,,,,,,,,,,,,
28.6880254,76.9640828,,Point,,node/6465991451,,,,,,Tikri Border,DMRC,Delhi Metro Rail Corporation,,station,station,subway,yes,,,Q30591462,en:Tikri Border metro station,,,,,,,,,,,,,,,,,,,,,,,,,,,,,,,
28.5471399,77.1945754,,Point,,node/6485904396,,,,,,IIT Delhi,DMRC,,,station,station,subway,yes,,,,,,,-1,,,,,,,,,,,,,,,,,,,,,,,,,,,,
28.6206019,77.249551,,Point,,node/6537193575,,,,,,Indraprastha,Delhi Metro,Delhi Metro Rail Corporation,,,station,subway,yes,,,,,ಇಂದ್ರ ಪ್ರಸ್ತ,,,,,,,,,,,,,,,,,,,,,,,,,,,,,,
28.623239,77.2678369,,Point,,node/6537193576,,,,,,Yamuna Bank (Blue Line),DMRC,Delhi Metro Rail Corporation,,station,station,subway,yes,,,Q12525001,en:Yamuna Bank metro station,ಯಮುನಾ ಬ್ಯಾಂಕ್,,,,,,,,,,,,,,,,,,,,,,,,,,,,,,
28.5890885,77.3015085,,Point,,node/6537196022,,,,,,New Ashok Nagar,Delhi Metro,Delhi Metro Rail Corporation,,,station,subway,yes,,,Q7005382,,,,1,,,,,,,,,,,,,,,,,,,,,,,,,,,,
28.604064,77.2895398,,Point,,node/6539745133,,,,,,Mayur Vihar - I (Blue Line),DMRC,Delhi Metro Rail Corporation,,station,station,subway,yes,,yes,Q6798106,,,,,,,,,,,,,,,,,,,,,,,,no,,,,,,,,
28.5922362,77.0407315,,Point,,node/6539894848,,,,,,Dwarka Sector 12,Delhi Metro,Delhi Metro Rail Corporation,,station,station,subway,yes,,,Q5317946,,,,,,,,,,,,,,,,,,,,,,,,,,,,,,,,
28.6443188,77.1999165,,Point,,node/6539894849,,,,,,Jhandewalan,Delhi Metro,Delhi Metro Rail Corporation,,station,station,subway,yes,,,Q6190836,,ಝಾಂಡೆವಾಲನ್,,,,,,,,,,,,,,,,,,,,,,,,,,,,,,
28.6392436,77.2085787,,Point,,node/6539894850,,,,,,Ramakrishna Ashram Marg,Delhi Metro,Delhi Metro Rail Corporation,,station,station,subway,yes,,,Q7288800,,,,,,,,,,,,,,,,,,,,,,,,,,,,,,,,
28.6327062,77.2193123,,Point,,node/6539894851,,,,,,Rajiv Chok,DMRC,,,station,station,subway,yes,,,Q7286183,,ರಾಜೀವ್ ಚೌಕ್,,,,,,,,,,,,,,,,,,,,,,,,,,,,,,
28.6297676,77.2250046,,Point,,node/6539894855,,,,,,Barakhambha Road,Delhi Metro,Delhi Metro Rail Corporation,,station,station,subway,yes,,,Q4858265,en:Barakhamba Road metro station,,,,,,,,,,,,,,,,,,,,,,,,,,,,,,,
28.6255564,77.2341897,,Point,,node/6539894856,,,,,,Mandi House,DMRC,,,station,station,subway,yes,,,Q6748047,en:Mandi House metro station,ಮಂಡಿ ಹೌಸ್,,,,,,,,,,,,,,,,,,,,,,,,,,,,,,
28.6234752,77.2425278,,Point,,node/6539894857,,,,,,Pragati Maidan,Delhi Metro,Delhi Metro Rail Corporation,,station,station,subway,yes,,,Q7237614,en:Pragati Maidan metro station,ಪ್ರಗತಿ ಮೈದಾನ್,,,,,,,,,,,,,,,,,,,,,,,,,,,,,,
28.5810577,77.0574996,,Point,,node/6539894859,,,,,,Dwarka Sector 10,Delhi Metro,Delhi Metro Rail Corporation,,station,station,subway,yes,,,Q5317944,,,,,,,,,,,,,,,,,,,,,,,,,,,,,,,,
28.574272,77.0653316,,Point,,node/6539894860,,,,,,Dwarka Sector 9,Delhi Metro,Delhi Metro Rail Corporation,,station,station,subway,yes,,,Q5317951,,,,,,,,,,,,,,,,,,,,,,,,,,,,,,,,
28.5656109,77.0670366,,Point,,node/6539894861,,,,,,Dwarka Sector 8,Delhi Metro,Delhi Metro Rail Corporation,,station,station,subway,yes,,,Q5317949,,,,,,,,,,,,,,,,,,,,,,,,,,,,,,,,
28.5519218,77.0585605,,Point,,node/6539894862,,,,,,Dwarka Sector 21,Delhi Metro,Delhi Metro Rail Corporation,,station,station,subway,yes,,,,,,,,,,,,,,,,,,,,,,,,,,,,,,,,,,,
28.6295839,77.078085,,Point,,node/6541854249,,,,,,Janakpuri West,Delhi Metro,Delhi Metro Rail Corporation,,station,station,subway,yes,,,,,,,,,,,,,,,,,,,,,,,,,,,,,,,,,,,
28.6248465,77.0652861,,Point,,node/6541854250,,,,,,Uttam Nagar East,Delhi Metro,Delhi Metro Rail Corporation,,station,station,subway,yes,,,Q11288933,,,,,,,,,,,,,,,,,,,,,,,,,,,,,,,,
28.621757,77.0557122,,Point,,node/6541854251,,,,,,Uttam Nagar West,Delhi Metro,Delhi Metro Rail Corporation,,station,station,subway,yes,,,Q11288937,,,,,,,,,,,,,,,,,,,,,,,,,,,,,,,,
28.6202758,77.0450787,,Point,,node/6541854252,,,,,,Nawada,Delhi Metro,Delhi Metro Rail Corporation,,station,station,subway,yes,,,Q6982809,,,,,,,,,,,,,,,,,,,,,,,,,,,,,,,,
28.61931,77.0332792,,Point,,node/6541854253,,,,,,Dwarka Mor,Delhi Metro,Delhi Metro Rail Corporation,,station,station,subway,yes,,,Q5317939,,,,,,,,,,,,,,,,,,,,,,,,,,,,,,,,
28.6158874,77.0224342,,Point,,node/6541854254,,,,,,Dwarka,DMRC,,,,station,subway,,,,,,,,,,,,,,,,,,,,,DWK,,,,,,,,,,,,,,,
28.6149362,77.0227628,,Point,,node/6541854255,,,,,,Dwarka,Delhi Metro,Delhi Metro Rail Corporation,,station,station,subway,yes,,,,,,,,,,,,,,,,,,,,DWK,,,,,,,,,,,,,,,
28.6022218,77.0259765,,Point,,node/6541854256,,,,,,Dwarka Sector 14,Delhi Metro,Delhi Metro Rail Corporation,,station,station,subway,yes,,,,,,,,,,,,,,,,,,,,,,,,,,,,,,,,,,,
28.597009,77.0335407,,Point,,node/6541854257,,,,,,Dwarka Sector 13,Delhi Metro,Delhi Metro Rail Corporation,,station,station,subway,yes,,,Q5317947,,,,,,,,,,,,,,,,,,,,,,,,,,,,,,,,
28.7165805,77.1704223,,Point,,node/6547772109,,,,,,Adarsh Nagar,DMRC,Delhi Metro Rail Corporation,,station,station,subway,yes,,,,,,,,,,,,,,,,,,,,,,,,,,,,,,public_transport,,,,,
28.7259717,77.162658,,Point,,node/6547772110,,,,,,Jahangirpuri,DMRC,,,station,station,subway,yes,,,Q862598,,,,,,,,,,,,,,,,,,,,,,,,,,,,,,,,
28.633021,77.086757,,Point,,node/6548798518,,,,,,Janakpuri East,DMRC,Delhi Metro Rail Corporation,,station,station,subway,yes,,,,,,,,,,,,,,,,,,,,,,,,,,,,,,,,,,,
28.6365482,77.0964961,,Point,,node/6548798519,,,,,,Tilak Nagar,DMRC,Delhi Metro Rail Corporation,,station,station,subway,yes,,,,,,,,,,,,,,,,,,,,,,,,,,,,,,,,,,,
28.6404593,77.1051815,,Point,,node/6548798520,,,,,,Subhash Nagar,DMRC,Delhi Metro Rail Corporation,,station,station,subway,yes,,,,,,,,,,,,,,,,,,,,,,,,,,,,,,,,,,,
28.6437265,77.11282,,Point,,node/6548798521,,,,,,Tagore Garden,DMRC,Delhi Metro Rail Corporation,,station,station,subway,yes,,,,,,,,,,,,,,,,,,,,,,,,,,,,,,,,,,,
28.7027136,77.1939912,,Point,,node/7018301880,,,,,,Model Town,DMRC,,,station,station,subway,yes,,,Q6888294,,,,,,,,,,,,,,,,,,,,,,,,,,,,,,,,
28.5668602,77.2078058,,Point,,node/7018301883,,,,,,All India Institute of Medical Sciences,IN:DMRC:YELLOW,Delhi Metro Rail Corporation Ltd.,,,station,subway,,,,Q4651928,en:AIIMS metro station,ಏಐಐಎಮ್ಎಸ್,,,,,,,,,,yes,yes,yes,yes,yes,,,,,,,,,,,,AIIMS,,,,
28.5580071,77.2067933,,Point,,node/7018316585,,,,,,Green Park,IN:DMRC:YELLOW,Delhi Metro Rail Corporation Ltd.,,,station,subway,,,,,,ಗ್ರೀನ್ ಪಾರ್ಕ್,,,,,,,,,,yes,yes,yes,yes,yes,,,,,,,,,,,,,گرین پارک,,,
28.6768508,77.2250299,,Point,,node/7018316586,,,,,,Civil Lines,DMRC,,,station,station,subway,yes,,,Q5124512,,,,,,,,,,,,,,,,,,,,,,,,,,,,,,delhi metro,,
28.6863222,77.2217271,,Point,,node/7018316587,,,,,,Vidhan Sabha,DMRC,,,station,station,subway,yes,,,Q11352050,,,,,,,,,,,,,,,,,,,,,,,,,,,,,,,,
28.6950369,77.2147192,,Point,,node/7018316588,,,,,,Vishwa Vidyalaya,DMRC,,,station,station,subway,yes,,,Q7936037,,,,,,,,,,,,,,,,,,,,,,,,,,,,,,,,
28.5290656,77.2048241,,Point,,node/7018316591,,,,,,Malviya Nagar,IN:DMRC:YELLOW,Delhi Metro Rail Corporation Ltd.,,station,station,subway,yes,,,Q6745134,en:Malviya Nagar metro station,ಮಾಳ್ವಿಯ ನಗರ್,,,,,,,,,,yes,yes,yes,yes,yes,,,,,,,,,,,,,,,,
28.5067242,77.1750019,,Point,,node/7018316592,,,,,,Chhatarpur,IN:DMRC:YELLOW,Delhi Metro Rail Corporation Ltd.,,station,station,subway,yes,,yes,,,,,,,,,,,,,yes,yes,yes,yes,yes,,,,,,,,,,,,,,,,
28.4991235,77.1613745,,Point,,node/7018711118,,,,,,Sultanpur,IN:DMRC:YELLOW,Delhi Metro Rail Corporation Ltd.,,station,station,subway,yes,,,,,,,,,,,,,,,yes,yes,yes,yes,yes,SLN,,,,,,,,,,,,,,,
28.6584227,77.2303375,,Point,,node/7018886724,,,,,,Chandni Chowk,DMRC,Delhi Metro,,,station,subway,,,,Q5071227,,,,,,,,,,,,,,,,,,,,,,,,,,,,,,,,
28.6492649,77.2265153,,Point,,node/7018886725,,,,,,Chawri Bazaar,DMRC,,,,station,subway,,,,Q5088577,en:Chawri Bazar metro station,,,,,,,,,,,,,,,,,,,,,,,,,,,,,,,
28.6229664,77.214031,,Point,,node/7018886726,,,,,,Patel Chok,DMRC,,,,station,subway,,,,Q7144407,,,,,,,,,,,,,,,,,,,,,,,,,,,,,,,,
28.6095136,77.211796,,Point,,node/7018886727,,,,,,Udyog Bhavan,DMRC,,,,station,subway,,,,,,,,,,,,,,,,,,,,,,,,,,,,,,,,,,,,
28.5973513,77.2110967,,Point,,node/7018886728,,,,,,Lok Kalyan Marg,DMRC,,,,station,subway,,,,,,ಲೋಕ್ ಕಲ್ಯಾಣ್,,,,,,,,,,,,,,,,,,,,,,,,,,,,,Race Course,
28.5865979,77.212534,,Point,,node/7018886729,,,,,,Jor Bagh,DMRC,,,,station,subway,,,,,,ಜೋರ್ ಭಾಗ್,,,,,,,,,,,,,,,,,,,,,,,,,,,,,,
28.512951,77.1864532,,Point,,node/7018886730,,,,,,Qutub Minar,IN:DMRC:YELLOW,Delhi Metro Rail Corporation Ltd.,,,station,subway,,,,,,,,,,,,,,,,yes,yes,yes,yes,yes,,,,,,,,,,,,,,,,
28.493751,77.1491866,,Point,,node/7018886731,,,,,,Ghitorni,IN:DMRC:YELLOW,Delhi Metro Rail Corporation Ltd.,,,station,subway,,,,Q271195,en:Delhi Metro,,,,,,,,,,,yes,yes,yes,yes,yes,,,,,,,,,,,,,,,,
28.4807352,77.1257622,,Point,,node/7018886732,,,,,,Arjan Garh,IN:DMRC:YELLOW,Delhi Metro Rail Corporation Ltd.,,,station,subway,,,,Q271195,en:Delhi Metro,,,,,,,,,,,yes,yes,yes,yes,yes,,,,,,,,,,,,,,,,
28.6131778,76.9982846,,Point,,node/7039532904,,,,,,Najafgarh,DMRC,,,,station,subway,,,,,,,,,,,,,,,,,,,,,,,,,,,,,,,,,,,,
28.6173003,77.0104375,,Point,,node/7039532905,,,,,,Nangli,DMRC,,,,station,subway,,,,,,,,,,,,,,,,,,,,,,,,,,,,,,,,,,,,
28.5514171,77.2517386,,Point,,node/7267374894,,,,,,Nehru Place,,,,station,station,subway,,,,,,,,,,,,,,,,,,,,,,,,,,,,,,,,,,,,
28.5553298,77.2419637,,Point,,node/7267374895,,,,,,Kailash Colony,DMRC,,,station,station,subway,yes,,,,,,,,,,,,,,,,,,,,,,,,,,,,,,,,,,,
28.657483,77.2366607,,Point,,node/7282286730,,,,,,Lal Quila,,Delhi Metro,,,station,subway,,,yes,,,,,,,,,,,,,,,,,,,,,,,,,no,,,,,,,,
28.6022446,77.2291281,,Point,,node/7282286731,,,,,,Khan Market,DMRC,,,,station,subway,,,,,,,,,,,,,,,,,,,,,,,,,,,,,,,,,,,,
28.5830409,77.2393165,,Point,,node/7282286732,,,,,,Jangpura,DMRC,,,,station,subway,,,,,,,,,,,,,,,,,,,,,,,,,,,,,,,,,,,,
28.6392174,77.2407795,,Point,,node/7282286733,,,,,,Delhi Gate,Delhi Metro,DMRC,,station,station,subway,yes,,,Q19580569,en:Delhi Gate metro station,,,,,,,,,,,,,,,,,,,,,,,,,,,,,,,Violet Line
28.6327786,77.2196985,,Point,,node/8018558072,,,,,,Rajiv Chowk,DMRC,Delhi Metro Rail Corporation,,station,station,subway,yes,,,Q7286183,,ರಾಜೀವ್ ಚೌಕ್,,,,,,,,,,,,,,,,,,,,,,,,,,,,,,
